[{"OBJECT_NAME":"STARLINK-33660","OBJECT_ID":"2025-053P","EPOCH":"2026-03-09T12:20:23.132832","MEAN_MOTION":15.2758397,"ECCENTRICITY":0.00012177,"INCLINATION":42.9984,"RA_OF_ASC_NODE":243.0212,"ARG_OF_PERICENTER":244.6638,"MEAN_ANOMALY":115.4088,"EPHEMERIS_TYPE":0,"CLASSIFICATION_TYPE":"U","NORAD_CAT_ID":63278,"ELEMENT_SET_NO":999,"REV_AT_EPOCH":5616,"BSTAR":0.0011391491,"MEAN_MOTION_DOT":0.00031221,"MEAN_MOTION_DDOT":0},{"OBJECT_NAME":"CZ-6A DEB","OBJECT_ID":"2022-151DE","EPOCH":"2026-03-09T09:45:43.657920","MEAN_MOTION":15.34292219,"ECCENTRICITY":0.00393756,"INCLINATION":99.0022,"RA_OF_ASC_NODE":218.5596,"ARG_OF_PERICENTER":192.6197,"MEAN_ANOMALY":167.4059,"EPHEMERIS_TYPE":0,"CLASSIFICATION_TYPE":"U","NORAD_CAT_ID":54359,"ELEMENT_SET_NO":999,"REV_AT_EPOCH":10560,"BSTAR":0.0065240017,"MEAN_MOTION_DOT":0.00228186,"MEAN_MOTION_DDOT":0}]
